0 FENGYUN 1C DEB
1 29852U 99025EW  13282.47638635  .00002743  00000-0  21407-2 0  1005
2 29852 099.1438 219.4932 0167231 340.6114 081.5614 13.86774141340353
0 FENGYUN 1C DEB
1 29852U 99025EW  13284.07735833  .00002721  00000-0  21238-2 0  1010
2 29852 099.1437 221.0595 0167079 336.3366 154.2088 13.86779778340575
0 FENGYUN 1C DEB
1 29852U 99025EW  13286.09798654  .00002417  00000-0  18910-2 0  1031
2 29852 099.1439 223.0360 0166862 330.9335 162.0051 13.86789130340855
0 FENGYUN 1C DEB
1 29852U 99025EW  13287.52619411  .00002762  00000-0  21560-2 0  1042
2 29852 099.1444 224.4330 0166729 327.1094 092.2451 13.86794588341059
0 FENGYUN 1C DEB
1 29852U 99025EW  13288.82451185  .00002884  00000-0  22502-2 0  1051
2 29852 099.1449 225.7029 0166594 323.6423 094.0402 13.86804962341234
0 FENGYUN 1C DEB
1 29852U 99025EW  13289.83507869  .00002929  00000-0  22843-2 0  1063
2 29852 099.1452 226.6915 0166478 320.9434 099.2787 13.86811243341373
0 FENGYUN 1C DEB
1 29852U 99025EW  13291.36155976  .00002684  00000-0  20964-2 0  1073
2 29852 099.1456 228.1847 0166298 316.8434 160.2782 13.86819288341586
0 FENGYUN 1C DEB
1 29852U 99025EW  13292.37156462  .00002786  00000-0  21751-2 0  1085
2 29852 099.1458 229.1730 0166184 314.1347 162.7788 13.86824333341724
0 FENGYUN 1C DEB
1 29852U 99025EW  13293.38188782  .00003183  00000-0  24807-2 0  1095
2 29852 099.1457 230.1615 0166057 311.4248 166.8887 13.86829514341862
0 FENGYUN 1C DEB
1 29852U 99025EW  13294.80717006  .00003432  00000-0  26715-2 0  1109
2 29852 099.1456 231.5560 0165938 307.5865 082.7573 13.86837254342064
0 FENGYUN 1C DEB
1 29852U 99025EW  13295.82286343  .00003224  00000-0  25117-2 0  1112
2 29852 099.1454 232.5500 0165830 304.8548 113.7308 13.86842805342201
